OBJECT_NAME,OBJECT_ID,EPOCH,MEAN_MOTION,ECCENTRICITY,INCLINATION,RA_OF_ASC_NODE,ARG_OF_PERICENTER,MEAN_ANOMALY,EPHEMERIS_TYPE,CLASSIFICATION_TYPE,NORAD_CAT_ID,ELEMENT_SET_NO,REV_AT_EPOCH,BSTAR,MEAN_MOTION_DOT,MEAN_MOTION_DDOT
GPS BIIR-5  (PRN 22),2000-040A,2026-06-25T06:42:48.895776,2.00557831,.01209316,54.8505,214.8407,302.5387,64.3497,0,U,26407,999,19011,0,.74E-6,0
GPS BIIR-8  (PRN 16),2003-005A,2026-06-25T01:56:13.305120,2.00560235,.0148002,54.8812,214.6551,53.0935,306.1631,0,U,27663,999,17146,0,.73E-6,0
GPS BIIR-11 (PRN 19),2004-009A,2026-06-24T07:28:48.719136,2.00554582,.01164049,54.8236,275.3992,173.4104,143.5535,0,U,28190,999,16308,0,-.71E-6,0
GPS BIIR-13 (PRN 02),2004-045A,2026-06-24T18:37:56.494848,2.00556342,.01699015,55.1314,324.5905,316.5959,40.8315,0,U,28474,999,15857,0,-.107E-5,0
GPS BIIRM-1 (PRN 17),2005-038A,2026-06-25T07:07:08.645376,2.00565229,.0127971,54.8713,272.8500,296.2313,40.8481,0,U,28874,999,15199,0,-.59E-6,0
INMARSAT 4-F2 (SOUTHPAN/PRN 122),2005-044A,2026-06-24T23:35:32.752608,1.00272215,.00032401,5.1055,43.6925,39.9506,326.8574,0,U,28899,999,7560,0,-.256E-5,0
GPS BIIRM-2 (PRN 31),2006-042A,2026-06-24T11:17:02.067648,2.00569473,.01067228,54.7116,151.0498,54.5971,304.3172,0,U,29486,999,14453,0,.65E-6,0
GPS BIIRM-3 (PRN 12),2006-052A,2026-06-21T21:44:14.544096,2.00558294,.00854923,54.9339,213.8191,90.7942,270.2511,0,U,29601,999,14350,0,.37E-6,0
GPS BIIRM-4 (PRN 15),2007-047A,2026-06-25T04:51:28.688832,2.00554940,.01670763,54.1009,79.7351,87.5534,274.3693,0,U,32260,999,13697,0,-.78E-6,0
COSMOS 2433 (720),2007-052A,2026-06-23T22:54:28.094112,2.13104086,.00027902,65.5727,315.7051,194.8015,165.1813,0,U,32275,999,14520,0,-.82E-6,0
COSMOS 2432 (719),2007-052B,2026-06-24T23:11:57.513696,2.13103129,.00074467,65.5880,315.7989,329.0779,31.2465,0,U,32276,999,14525,0,-.84E-6,0
GPS BIIRM-5 (PRN 29),2007-062A,2026-06-24T00:39:01.362240,2.00560588,.00358224,55.0261,273.8775,166.0586,192.8031,0,U,32384,999,13564,0,-.7E-6,0
COSMOS 2434 (721),2007-065A,2026-06-24T05:49:29.226432,2.13101274,.00012183,64.3185,191.6780,329.6541,141.2402,0,U,32393,999,14392,0,.104E-5,0
COSMOS 2436 (723),2007-065C,2026-06-22T03:30:42.402240,2.13100062,.00172761,64.3269,191.8207,353.7327,81.1911,0,U,32395,999,14383,0,.84E-6,0
GPS BIIRM-6 (PRN 07),2008-012A,2026-06-25T02:42:44.984160,2.00572680,.02114092,54.4984,149.6081,247.9409,109.7809,0,U,32711,999,13391,0,.55E-6,0
GPS BIIRM-8 (PRN 05),2009-043A,2026-06-25T06:41:48.351840,2.00553990,.00537973,56.2155,27.1339,83.5464,45.5161,0,U,35752,999,12352,0,-.9E-6,0
COSMOS 2456 (730),2009-070A,2026-06-24T03:19:17.933664,2.13103579,.00043369,65.0154,70.7346,335.5645,213.4976,0,U,36111,999,12857,0,-.7E-6,0
COSMOS 2457 (733),2009-070B,2026-06-23T22:57:07.299072,2.13101046,.0003066,65.0012,70.5847,122.1178,54.6156,0,U,36112,999,12857,0,-.7E-6,0
COSMOS 2460 (732),2010-007C,2026-06-24T14:22:26.819328,2.13101547,.0002044,65.4157,314.2152,120.3495,191.3100,0,U,36402,999,12688,0,-.84E-6,0
GPS BIIF-1  (PRN 25),2010-022A,2026-06-25T04:18:05.821920,2.00562897,.01264087,54.2698,208.2400,66.1256,109.8583,0,U,36585,999,11775,0,.82E-6,0
BEIDOU-2 IGSO-1 (C06),2010-036A,2026-06-24T21:42:12.390912,1.00270002,.00591165,54.3046,162.8893,225.3958,317.8899,0,U,36828,999,5817,0,-.48E-6,0
BEIDOU-2 G4 (C04),2010-057A,2026-06-24T13:24:16.133184,1.00271193,.00048959,3.6659,68.9129,194.6419,10.2041,0,U,37210,999,5736,0,-.107E-5,0
BEIDOU-2 IGSO-2 (C07),2010-068A,2026-06-24T16:14:12.098688,1.00281062,.00560425,47.5326,271.7373,213.3814,139.3528,0,U,37256,999,5686,0,-.223E-5,0
BEIDOU-2 IGSO-3 (C08),2011-013A,2026-06-23T13:12:31.362336,1.00266402,.00349669,62.4163,40.0898,184.1575,353.0787,0,U,37384,999,5572,0,-.196E-5,0
GSAT-8 (GAGAN/PRN 127),2011-022A,2026-06-25T04:18:20.797632,1.00272388,.00016914,2.1520,81.7360,187.7973,123.4401,0,U,37605,999,5329,0,.92E-6,0
BEIDOU-2 IGSO-4 (C09),2011-038A,2026-06-24T21:50:40.345152,1.00283829,.0159599,54.6027,165.6034,231.4937,297.3376,0,U,37763,999,5472,0,.35E-6,0
GSAT0101 (GALILEO-PFM),2011-060A,2026-06-23T07:13:12.541440,1.70475800,.00029289,56.9921,341.5952,54.5594,305.4650,0,U,37846,999,9122,0,-.98E-6,0
GSAT0102 (GALILEO-FM2),2011-060B,2026-06-23T18:24:15.323328,1.70476044,.00028964,56.9927,341.5831,14.6651,316.9838,0,U,37847,999,9123,0,-.98E-6,0
COSMOS 2476 (744),2011-064A,2026-06-22T08:48:28.058688,2.13103651,.00226061,65.2731,72.6963,238.5611,299.8582,0,U,37867,999,11387,0,-.61E-6,0
COSMOS 2477 (745),2011-064B,2026-06-20T06:28:07.156128,2.13102843,.0019648,65.2782,72.8466,240.0065,309.6331,0,U,37868,999,11382,0,-.39E-6,0
COSMOS 2475 (743),2011-064C,2026-06-24T14:26:53.719296,2.13101777,.00253707,65.2875,72.7218,252.8392,335.6275,0,U,37869,999,11392,0,-.69E-6,0
